1 44753U 19074AS  22365.33882617  .00006994  00000-0  48761-3 0  9997
2 44753  53.0556  13.6041 0002466  38.6545 321.4620 15.06426144173252
1 44753U 19074AS  22365.33882617  .00006994  00000-0  48761-3 0  9997
2 44753  53.0556  13.6041 0002466  38.6545 321.4620 15.06426144173421
1 44753U 19074AS  22365.80325269 -.00001683  00000-0 -94052-4 0  9991
2 44753  53.0554  11.5203 0002471  38.9028 321.2139 15.06410614173496
1 44753U 19074AS  23001.13498932 -.00003798  00000-0 -23621-3 0  9995
2 44753  53.0559  10.0292 0002174  32.0922 328.0199 15.06397841173544
1 44753U 19074AS  23001.40037939 -.00004689  00000-0 -29610-3 0  9995
2 44753  53.0554   8.8382 0002358  35.4219 324.6926 15.06390812173411
1 44753U 19074AS  23001.73212138 -.00005526  00000-0 -35250-3 0  9995
2 44753  53.0553   7.3496 0002357  35.2072 324.9072 15.06381334173463
1 44753U 19074AS  23001.73212138 -.00005526  00000-0 -35250-3 0  9995
2 44753  53.0553   7.3496 0002357  35.2072 324.9072 15.06381334173632
1 44753U 19074AS  23002.39559298 -.00000468  00000-0 -12531-4 0  9997
2 44753  53.0557   4.3706 0002364  34.7249 325.3894 15.06394237173560
1 44753U 19074AS  23002.39559298 -.00000468  00000-0 -12531-4 0  9997
2 44753  53.0557   4.3706 0002364  34.7249 325.3894 15.06394237173739
1 44753U 19074AS  23002.72732779  .00002206  00000-0  16696-3 0  9996
2 44753  53.0554   2.8826 0002440  35.1725 324.9425 15.06397660173616
1 44753U 19074AS  23003.25810857  .00004637  00000-0  33006-3 0  9993
2 44753  53.0550   0.4995 0002444  33.8955 326.2190 15.06395410173690
1 44753U 19074AS  23004.05427121  .00003001  00000-0  22028-3 0  9996
2 44753  53.0558 356.9261 0002515  29.7881 330.3251 15.06398922173981
1 44753U 19074AS  23004.38600245  .00004699  00000-0  33408-3 0  9990
2 44753  53.0552 355.4352 0002419  34.9117 325.2031 15.06406807173861
1 44753U 19074AS  23004.65138438  .00006769  00000-0  47270-3 0  9992
2 44753  53.0556 354.2445 0002418  33.7017 326.4125 15.06416890173905
1 44753U 19074AS  23004.65138438  .00006769  00000-0  47270-3 0  9992
2 44753  53.0556 354.2445 0002418  33.7017 326.4125 15.06416890174074
1 44753U 19074AS  23005.24849873  .00005999  00000-0  42105-3 0  9996
2 44753  53.0557 351.5643 0002446  34.8612 325.2537 15.06421348173997
1 44753U 19074AS  23005.64657899  .00002019  00000-0  15434-3 0  9990
2 44753  53.0556 349.7781 0002441  35.3405 324.7745 15.06412300174050
1 44753U 19074AS  23006.24371060 -.00003985  00000-0 -24881-3 0  9991
2 44753  53.0558 347.0961 0002472  36.3974 323.7183 15.06387161174319
1 44753U 19074AS  23006.90718072 -.00001056  00000-0 -51988-4 0  9998
2 44753  53.0567 344.1183 0002276  38.9215 321.1938 15.06398633174249
1 44753U 19074AS  23007.10621493  .00000729  00000-0  67839-4 0  9997
2 44753  53.0559 343.2248 0002361  36.9580 323.1571 15.06401963174279
1 44753U 19074AS  23007.10621493  .00000729  00000-0  67839-4 0  9997
2 44753  53.0559 343.2248 0002361  36.9580 323.1571 15.06401963174448
1 44753U 19074AS  23007.90238569  .00002216  00000-0  16769-3 0  9991
2 44753  53.0558 339.6508 0002400  36.5625 323.5528 15.06391527174399
1 44753U 19074AS  23008.16777307  .00003451  00000-0  25051-3 0  9994
2 44753  53.0557 338.4594 0002402  38.0020 322.1138 15.06395930174437
1 44753U 19074AS  23008.16777307  .00003451  00000-0  25051-3 0  9994
2 44753  53.0557 338.4594 0002402  38.0020 322.1138 15.06395930174606
1 44753U 19074AS  23008.89758866  .00003348  00000-0  24358-3 0  9997
2 44753  53.0557 335.1838 0002461  38.9035 321.2131 15.06400253174542
1 44753U 19074AS  23009.16297653  .00001922  00000-0  14789-3 0  9993
2 44753  53.0558 333.9910 0002218  42.9037 317.2125 15.06398640174585
1 44753U 19074AS  23009.62740201  .00002002  00000-0  15328-3 0  9996
2 44753  53.0555 331.9073 0002364  40.4234 319.6930 15.06403795174829
1 44753U 19074AS  23009.89278962  .00003683  00000-0  26600-3 0  9996
2 44753  53.0556 330.7161 0002346  39.5440 320.5719 15.06404046174694
1 44753U 19074AS  23010.15817925  .00001128  00000-0  94621-4 0  9996
2 44753  53.0555 329.5248 0002234  35.9822 324.1317 15.06397256174738
1 44753U 19074AS  23010.15817925  .00001128  00000-0  94621-4 0  9996
2 44753  53.0555 329.5248 0002234  35.9822 324.1317 15.06397256174907
1 44753U 19074AS  23010.88799277  .00002451  00000-0  18338-3 0  9995
2 44753  53.0558 326.2489 0002260  40.8698 319.2460 15.06402370174847
1 44753U 19074AS  23011.08702934  .00006578  00000-0  45991-3 0  9991
2 44753  53.0555 325.3551 0002255  39.0548 321.0604 15.06413791174875
1 44753U 19074AS  23011.08702934  .00006578  00000-0  45991-3 0  9991
2 44753  53.0555 325.3551 0002255  39.0548 321.0604 15.06413791175045
1 44753U 19074AS  23011.81685488  .00000527  00000-0  54338-4 0  9990
2 44753  53.0557 322.0788 0002306  42.1640 317.9526 15.06393031175151
1 44753U 19074AS  23011.88320303 -.00002425  00000-0 -14401-3 0  9996
2 44753  53.0557 321.7810 0001866  17.4855 342.6198 15.06382894174992
1 44753U 19074AS  23012.14859636 -.00001355  00000-0 -72068-4 0  9997
2 44753  53.0549 320.5927 0001988  50.5577 309.5588 15.06385533175206
1 44753U 19074AS  23012.87840751  .00003889  00000-0  27980-3 0  9999
2 44753  53.0548 317.3147 0001918  52.5972 307.5192 15.06401590175141
1 44753U 19074AS  23013.01110126  .00007863  00000-0  54598-3 0  9993
2 44753  53.0547 316.7180 0001788  48.9949 311.1194 15.06412154175330
1 44753U 19074AS  23013.14379578  .00024940  00000-0  16860-2 0  9999
2 44753  53.0540 316.1227 0001821  56.0731 304.0431 15.06427796175351
1 44753U 19074AS  23013.54187761  .00014704  00000-0  10035-2 0  9999
2 44753  53.0530 314.3354 0001801  66.3358 293.7819 15.06416030175249
1 44753U 19074AS  23013.54187761  .00014704  00000-0  10035-2 0  9999
2 44753  53.0530 314.3354 0001801  66.3358 293.7819 15.06416030175418
1 44753U 19074AS  23014.13900466  .00026978  00000-0  18233-2 0  9994
2 44753  53.0520 311.6540 0001682  74.3461 285.7714 15.06395438175508
1 44753U 19074AS  23015.06787111  .00032223  00000-0  21720-2 0  9992
2 44753  53.0514 307.4835 0001719  88.0073 272.1113 15.06404151175644
1 44753U 19074AS  23015.20056387  .00031660  00000-0  21342-2 0  9996
2 44753  53.0511 306.8871 0001758  92.4818 267.6372 15.06410397175491
1 44753U 19074AS  23016.06305920  .00028915  00000-0  19499-2 0  9990
2 44753  53.0519 303.0166 0001398  92.8187 267.2962 15.06442559175629
1 44753U 19074AS  23016.06305920  .00028915  00000-0  19499-2 0  9990
2 44753  53.0519 303.0166 0001398  92.8187 267.2962 15.06442559175797
1 44753U 19074AS  23016.79288121  .00021136  00000-0  14335-2 0  9995
2 44753  53.0506 299.7389 0001813  84.1737 275.9459 15.06401816175730
1 44753U 19074AS  23016.79288121  .00021136  00000-0  14335-2 0  9995
2 44753  53.0506 299.7389 0001813  84.1737 275.9459 15.06401816175909
1 44753U 19074AS  23017.12462348  .00017762  00000-0  12093-2 0  9997
2 44753  53.0523 298.2507 0001727  68.5079 291.6094 15.06369293175950
1 44753U 19074AS  23017.19096924  .00000972  00000-0  84186-4 0  9996
2 44753  53.0521 297.9517 0001686  73.2600 286.8574 15.06378593175796
1 44753U 19074AS  23018.11982780  .00021954  00000-0  14875-2 0  9992
2 44753  53.0524 293.7820 0001719  72.8403 287.2774 15.06415629175938
1 44753U 19074AS  23018.11982780  .00021954  00000-0  14875-2 0  9992
2 44753  53.0524 293.7820 0001719  72.8403 287.2774 15.06415629176108
1 44753U 19074AS  23018.91598345  .00021808  00000-0  14775-2 0  9997
2 44753  53.0521 290.2081 0001404  95.2625 264.8524 15.06423364176055
1 44753U 19074AS  23019.11502097  .00023304  00000-0  15769-2 0  9996
2 44753  53.0522 289.3147 0001358  76.0821 284.0319 15.06431033176251
1 44753U 19074AS  23019.44676151  .00004696  00000-0  33394-3 0  9993
2 44753  53.0522 287.8249 0002204  91.0541 269.0700 15.06399300176138
1 44753U 19074AS  23019.44676151  .00004696  00000-0  33394-3 0  9993
2 44753  53.0522 287.8249 0002204  91.0541 269.0700 15.06399300176307
1 44753U 19074AS  23020.11023523  .00020411  00000-0  13856-2 0  9991
2 44753  53.0515 284.8467 0001531  91.3353 268.7811 15.06388571176402
1 44753U 19074AS  23020.44197117  .00014923  00000-0  10187-2 0  9993
2 44753  53.0526 283.3565 0001659  89.7691 270.3488 15.06395304176281
1 44753U 19074AS  23021.03909054  .00012444  00000-0  85261-3 0  9992
2 44753  53.0516 280.6777 0001378  91.8184 268.2963 15.06408970176541
1 44753U 19074AS  23021.43717078  .00009100  00000-0  62886-3 0  9992
2 44753  53.0515 278.8899 0001340  85.7249 274.3893 15.06407702176606
1 44753U 19074AS  23022.43236814  .00003535  00000-0  25603-3 0  9999
2 44753  53.0513 274.4237 0001171  87.2971 272.8152 15.06409457176759
1 44753U 19074AS  23023.09583813  .00001876  00000-0  14482-3 0  9995
2 44753  53.0513 271.4403 0001806 119.1570 240.9600 15.06400820176856
1 44753U 19074AS  23023.82565679  .00003351  00000-0  24375-3 0  9998
2 44753  53.0514 268.1631 0001584 122.1594 237.9549 15.06396377176967
1 44753U 19074AS  23025.08624589  .00004239  00000-0  30325-3 0  9992
2 44753  53.0517 262.5053 0001158  92.3990 267.7131 15.06404872177151
1 44753U 19074AS  23025.35163347  .00002164  00000-0  16414-3 0  9990
2 44753  53.0512 261.3134 0001134  91.2567 268.8552 15.06400828177027
1 44753U 19074AS  23025.81606561 -.00001380  00000-0 -73817-4 0  9993
2 44753  53.0517 259.2289 0001276  74.5032 285.6098 15.06393168177094
1 44753U 19074AS  23025.81606561 -.00001380  00000-0 -73817-4 0  9993
2 44753  53.0517 259.2289 0001276  74.5032 285.6098 15.06393168177263
1 44753U 19074AS  23026.08145651  .00002212  00000-0  16737-3 0  9991
2 44753  53.0521 258.0374 0001409  58.5723 301.5404 15.06392084177138
1 44753U 19074AS  23026.87761140  .00001562  00000-0  12369-3 0  9999
2 44753  53.0519 254.4631 0001196  86.6312 273.4814 15.06403650177426
1 44753U 19074AS  23027.01030388  .00001913  00000-0  14727-3 0  9999
2 44753  53.0515 253.8674 0001189  85.3909 274.7216 15.06405343177276
1 44753U 19074AS  23027.80647254  .00001095  00000-0  92376-4 0  9990
2 44753  53.0515 250.2931 0001266  80.8902 279.2230 15.06394703177567
1 44753U 19074AS  23027.87281885  .00001194  00000-0  99061-4 0  9999
2 44753  53.0507 249.9954 0001154  87.5777 272.5344 15.06395069177409
1 44753U 19074AS  23028.07185750  .00001662  00000-0  13043-3 0  9991
2 44753  53.0515 249.1020 0001154  86.1451 273.9670 15.06399691177433
1 44753U 19074AS  23028.86802278 -.00000175  00000-0  71473-5 0  9991
2 44753  53.0517 245.5270 0001218  87.2907 272.8221 15.06397843177551
1 44753U 19074AS  23029.00071521 -.00000050  00000-0  15534-4 0  9994
2 44753  53.0520 244.9315 0001136  90.7911 269.3208 15.06398806177748
1 44753U 19074AS  23029.92956943  .00000991  00000-0  85379-4 0  9992
2 44753  53.0517 240.7623 0001168  85.4309 274.6813 15.06399132177718
1 44753U 19074AS  23029.99591583  .00001200  00000-0  99453-4 0  9996
2 44753  53.0516 240.4643 0001145  85.4434 274.6686 15.06399272177724
1 44753U 19074AS  23030.85843792  .00009266  00000-0  64090-3 0  9993
2 44753  53.0519 236.5912 0001407  88.4500 271.6650 15.06356925177850
1 44753U 19074AS  23030.85843792  .00009266  00000-0  64090-3 0  9993
2 44753  53.0519 236.5912 0001407  88.4500 271.6650 15.06356925178020
1 44753U 19074AS  23031.25651068  .00000545  00000-0  55496-4 0  9993
2 44753  53.0519 234.8040 0001207  83.8448 276.2678 15.06396067178089
1 44753U 19074AS  23031.58824627  .00000090  00000-0  24926-4 0  9991
2 44753  53.0506 233.3148 0001219  85.7730 274.3398 15.06395658177965
1 44753U 19074AS  23031.91997857  .00000299  00000-0  38977-4 0  9996
2 44753  53.0506 231.8255 0001213  85.1881 274.9246 15.06397891178018
